{
    "CCSDS_OMM_VERS": "3.0",
    "COMMENT": "GENERATED VIA SPACE-TRACK.ORG API",
    "CREATION_DATE": "2025-05-22T17:14:14",
    "ORIGINATOR": "18 SPCS",
    "OBJECT_NAME": "COSMOS 2529 (GLONASS)",
    "OBJECT_ID": "2018-086A",
    "CENTER_NAME": "EARTH",
    "REF_FRAME": "TEME",
    "TIME_SYSTEM": "UTC",
    "MEAN_ELEMENT_THEORY": "SGP4",
    "EPOCH": "2025-05-22T06:55:15.447072",
    "MEAN_MOTION": "2.13101988",
    "ECCENTRICITY": "0.00109560",
    "INCLINATION": "64.2916",
    "RA_OF_ASC_NODE": "205.7970",
    "ARG_OF_PERICENTER": "257.3744",
    "MEAN_ANOMALY": "102.5761",
    "EPHEMERIS_TYPE": "0",
    "CLASSIFICATION_TYPE": "U",
    "NORAD_CAT_ID": "43687",
    "ELEMENT_SET_NO": "999",
    "REV_AT_EPOCH": "5095",
    "BSTAR": "0.00000000000000",
    "MEAN_MOTION_DOT": "0.00000054",
    "MEAN_MOTION_DDOT": "0.0000000000000",
    "SEMIMAJOR_AXIS": "25508.025",
    "PERIOD": "675.733",
    "APOAPSIS": "19157.837",
    "PERIAPSIS": "19101.944",
    "OBJECT_TYPE": "PAYLOAD",
    "RCS_SIZE": "LARGE",
    "COUNTRY_CODE": "CIS",
    "LAUNCH_DATE": "2018-11-03",
    "SITE": "PKMTR",
    "DECAY_DATE": null,
    "FILE": "4736220",
    "GP_ID": "288144583",
    "TLE_LINE0": "0 COSMOS 2529 (GLONASS)",
    "TLE_LINE1": "1 43687U 18086A   25142.28837323  .00000054  00000-0  00000-0 0  9990",
    "TLE_LINE2": "2 43687  64.2916 205.7970 0010956 257.3744 102.5761  2.13101988 50955"
}